#aV2023  5 26  0  0  0.00000000     288 DD+AD WGS84 FIT  NGA
## 2263 432000.00000000   300.00000000 60090 0.0000000000000
+   32     1  2  3  4  5  6  7  8  9 10 11 12 13 14 15 16 17
+         18 19 20 21 22 23 24 25 26 27 28 29 30 31 32  0  0
+          0  0  0  0  0  0  0  0  0  0  0  0  0  0  0  0  0
+          0  0  0  0  0  0  0  0  0  0  0  0  0  0  0  0  0
+          0  0  0  0  0  0  0  0  0  0  0  0  0  0  0  0  0
++         2  2  2  2  2  2  2  2  2  2  2  2  2  2  2  2  2
++         2  2  2  2  2  2  2  2  2  2  2  2  2  2  2  0  0
++         0  0  0  0  0  0  0  0  0  0  0  0  0  0  0  0  0
++         0  0  0  0  0  0  0  0  0  0  0  0  0  0  0  0  0
++         0  0  0  0  0  0  0  0  0  0  0  0  0  0  0  0  0
%c cc cc ccc ccc cccc cccc cccc cccc ccccc ccccc ccccc ccccc
%c cc cc ccc ccc cccc cccc cccc cccc ccccc ccccc ccccc ccccc
%f  0.0000000  0.000000000  0.00000000000  0.000000000000000
%f  0.0000000  0.000000000  0.00000000000  0.000000000000000
%i    0    0    0    0      0      0      0      0         0
%i    0    0    0    0      0      0      0      0         0
/*      NGA, ST. LOUIS,MO.                                  
/*   EPHEMERIS COMPUTED FROM 2 DAYS OF DATA                 
/*   EPOCHA v8 SMOOTHER                                     
/*   G2139 IERS2010 SATIGS SATAPC                           
*  2023  5 26  8 40  0.00000000
P  1 -11964.762794 -13486.313063 -19963.041948    182.611039                    
V  1  24434.543705    169.279718 -14673.110452     -0.026655                    
P  2   9298.721075 -14318.044249 -19823.610316   -592.311345                    
V  2  26318.540273   -532.778744  12627.981322      0.039672                    
P  3 -12885.536292 -23302.047326   -157.232081   -291.740990                    
V  3   1878.597366  -1004.722237 -32076.694812      0.118384                    
P  4  -5375.621363 -16978.313129  19681.450187     51.295563                    
V  4  14567.933243 -20347.761378 -13692.822414      0.099654                    
P  5   1776.227022  21955.019476  14580.281546   -128.649484                    
V  5 -11726.986081 -14913.235003  23716.125766     -0.014625                    
P  6 -24290.233197   5600.296342   9370.586742    587.429331                    
V  6 -11708.040141  -1917.290485 -29294.302494     -0.009248                    
P  7 -24081.874221  -7311.894282   9681.687667    168.812181                    
V  7  11544.759570  -2155.396658  27967.809795     -0.096133                    
P  8   3794.076531 -23431.950883 -11574.398060   -124.275451                    
V  8   9565.903686 -11531.904176  27033.957413     -0.018996                    
P  9 -13456.306481  -7264.995404  21644.294954   -150.412968                    
V  9  13614.917608 -24091.300847    335.873900      0.085590                    
P 10  16390.755357    658.701013 -20780.676099    -38.505776                    
V 10  12527.852823  23549.460914  10237.704794     -0.015560                    
P 11 -12565.840088  12779.838440  19597.227058   -210.902692                    
V 11 -24736.594981  -2799.273048 -14078.207053     -0.142967                    
P 12   9394.035766  24746.153442  -2957.848399   -380.691920                    
V 12  -3758.723405  -1993.840227 -31519.710095     -0.046922                    
P 13 -12288.361968  22538.667039  -6554.027118    525.244362                    
V 13  -7089.312843   4739.178010  30611.324744      0.052854                    
P 14 -17688.901167  -3774.865517 -19486.438646     69.567016                    
V 14 -10253.809551 -22577.338869  13521.908364      0.126435                    
P 15   -161.312513  23718.719709 -12140.740675     42.992007                    
V 15  -8642.791064  12508.115311  25784.192002      0.034769                    
P 16   3614.698656 -19969.262280  16582.776954   -497.634819                    
V 16  10829.549079  19046.007570  20646.411516      0.034898                    
P 17 -19013.126456   8317.255807 -16211.933774    716.177990                    
V 17  10645.672319 -18544.218846 -21335.533455      0.013019                    
P 18  25419.274769   5035.497421   6190.071856   -281.889658                    
V 18  -7884.042861   1927.584886  30647.531716     -0.155391                    
P 19 -19645.133218  14479.618150 -10321.477025    321.985370                    
V 19   5860.820207 -11680.753232 -28451.120312      0.051087                    
P 20  -4966.244550  16773.366901  20069.694263    431.506525                    
V 20 -16781.522193 -19098.777145  11642.312412     -0.020885                    
P 21  -3239.489974 -14708.828269 -21365.642832    153.583343                    
V 21  28341.622444  -1908.163229  -2069.545878     -0.002595                    
P 22  18332.658990 -17750.343235  -6607.117784    487.603700                    
V 22  -2917.537011   9001.423180 -30376.856775      0.062473                    
P 23  18719.925155  12546.337260 -14173.552643     27.389568                    
V 23   7709.855569  16267.642957  24425.140298      0.032867                    
P 24   7882.283893  14940.758628 -20928.408400   -202.388038                    
V 24 -25670.871495   2575.879146  -7545.006363     -0.135983                    
P 25  17003.302043  19113.504530   7322.110233    445.465982                    
V 25   2461.509359   9725.852703 -29565.450402      0.026323                    
P 26  11950.695743 -10361.621854  21199.909869    240.254690                    
V 26  15318.937429  22627.573634   2750.137331     -0.006062                    
P 27  12444.905765 -23170.839712  -1544.327312     29.559240                    
V 27   3394.244413     52.925204  32095.752587     -0.079108                    
P 28  24924.650351  -5587.853374   7249.188177     80.453258                    
V 28   9289.936846   2456.997540 -29957.458182      0.024382                    
P 29  10571.183783  10649.343672  21854.770452   -600.756114                    
V 29 -16245.670857  22611.761760  -3239.620331     -0.013046                    
P 30 -26677.884690    206.884284  -1089.773899   -514.992546                    
V 30  -1436.204580  -3423.323180  30969.402339      0.022488                    
P 31  17960.879261 -10923.481349  16324.450230   -216.871376                    
V 31  20814.327598   2520.179662 -20557.279642     -0.007610                    
P 32  18646.593404 -11215.443229 -14914.442187   -485.560847                    
V 32  -7793.761789  17843.750206 -23077.754127     -0.089595                    
EOF
